{
  "type": "FeatureCollection",
  "features": [
    {
      "type": "Feature",
      "properties": {
        "norad_id": 38709,
        "name": "EXACTVIEW-1 (ADS-1B)",
        "group": "resource",
        "lat": -7.29228925304644,
        "lon": -83.54898097145193,
        "alt_km": 819.760042951385,
        "timestamp": "2025-12-15T04:01:20.099639+00:00",
        "meta_object_name": "EXACTVIEW-1 (ADS-1B)",
        "meta_object_id": "2012-039C",
        "meta_epoch": "2025-12-14T06:55:21.665280",
        "meta_mean_motion": 14.24908824,
        "meta_eccentricity": 0.00105955,
        "meta_inclination": 98.9636,
        "meta_ra_of_asc_node": 96.711,
        "meta_arg_of_pericenter": 349.6477,
        "meta_mean_anomaly": 10.4482,
        "meta_ephemeris_type": 0,
        "meta_classification_type": "U",
        "meta_norad_cat_id": 38709,
        "meta_element_set_no": 999,
        "meta_rev_at_epoch": 69637,
        "meta_bstar": 0.00010818834,
        "meta_mean_motion_dot": 2.06e-06,
        "meta_mean_motion_ddot": 0,
        "tle_line1": "1 38709U 12039C   25348.28844520  .00000206  00000+0  10819-3 0  9996",
        "tle_line2": "2 38709  98.9636  96.7110 0010595 349.6477  10.4482 14.24908824696376"
      },
      "geometry": {
        "type": "Point",
        "coordinates": [
          -83.54898097145193,
          -7.29228925304644
        ]
      }
    },
    {
      "type": "Feature",
      "properties": {
        "norad_id": 38755,
        "name": "SPOT 6",
        "group": "resource",
        "lat": 29.960263845566615,
        "lon": -121.3503036087208,
        "alt_km": 695.653682572165,
        "timestamp": "2025-12-15T04:01:20.099649+00:00",
        "meta_object_name": "SPOT 6",
        "meta_object_id": "2012-047A",
        "meta_epoch": "2025-12-14T07:34:55.710912",
        "meta_mean_motion": 14.5860618,
        "meta_eccentricity": 0.00011582,
        "meta_inclination": 98.157,
        "meta_ra_of_asc_node": 53.0713,
        "meta_arg_of_pericenter": 99.2965,
        "meta_mean_anomaly": 260.8365,
        "meta_ephemeris_type": 0,
        "meta_classification_type": "U",
        "meta_norad_cat_id": 38755,
        "meta_element_set_no": 999,
        "meta_rev_at_epoch": 70610,
        "meta_bstar": 0.00016755611,
        "meta_mean_motion_dot": 7.35e-06,
        "meta_mean_motion_ddot": 0,
        "tle_line1": "1 38755U 12047A   25348.31592258  .00000735  00000+0  16756-3 0  9991",
        "tle_line2": "2 38755  98.1570  53.0713 0001158  99.2965 260.8365 14.58606180706107"
      },
      "geometry": {
        "type": "Point",
        "coordinates": [
          -121.3503036087208,
          29.960263845566615
        ]
      }
    },
    {
      "type": "Feature",
      "properties": {
        "norad_id": 39019,
        "name": "PLEIADES 1B",
        "group": "resource",
        "lat": 46.99920917619072,
        "lon": 52.90845588719098,
        "alt_km": 692.9742933398247,
        "timestamp": "2025-12-15T04:01:20.099660+00:00",
        "meta_object_name": "PLEIADES 1B",
        "meta_object_id": "2012-068A",
        "meta_epoch": "2025-12-14T08:02:50.523072",
        "meta_mean_motion": 14.58555934,
        "meta_eccentricity": 0.00012153,
        "meta_inclination": 98.179,
        "meta_ra_of_asc_node": 60.9614,
        "meta_arg_of_pericenter": 84.3228,
        "meta_mean_anomaly": 275.811,
        "meta_ephemeris_type": 0,
        "meta_classification_type": "U",
        "meta_norad_cat_id": 39019,
        "meta_element_set_no": 999,
        "meta_rev_at_epoch": 69390,
        "meta_bstar": 0.00017057376,
        "meta_mean_motion_dot": 7.47e-06,
        "meta_mean_motion_ddot": 0,
        "tle_line1": "1 39019U 12068A   25348.33530698  .00000747  00000+0  17057-3 0  9998",
        "tle_line2": "2 39019  98.1790  60.9614 0001215  84.3228 275.8110 14.58555934693900"
      },
      "geometry": {
        "type": "Point",
        "coordinates": [
          52.90845588719098,
          46.99920917619072
        ]
      }
    },
    {
      "type": "Feature",
      "properties": {
        "norad_id": 39030,
        "name": "GOKTURK 2",
        "group": "resource",
        "lat": 48.390419136920045,
        "lon": -178.0487063023924,
        "alt_km": 639.4489648239396,
        "timestamp": "2025-12-15T04:01:20.099670+00:00",
        "meta_object_name": "GOKTURK 2",
        "meta_object_id": "2012-073A",
        "meta_epoch": "2025-12-14T08:16:03.355392",
        "meta_mean_motion": 14.75295588,
        "meta_eccentricity": 0.00010466,
        "meta_inclination": 97.6896,
        "meta_ra_of_asc_node": 189.9192,
        "meta_arg_of_pericenter": 105.4001,
        "meta_mean_anomaly": 254.7325,
        "meta_ephemeris_type": 0,
        "meta_classification_type": "U",
        "meta_norad_cat_id": 39030,
        "meta_element_set_no": 999,
        "meta_rev_at_epoch": 69725,
        "meta_bstar": 0.00018396073,
        "meta_mean_motion_dot": 1.199e-05,
        "meta_mean_motion_ddot": 0,
        "tle_line1": "1 39030U 12073A   25348.34448328  .00001199  00000+0  18396-3 0  9995",
        "tle_line2": "2 39030  97.6896 189.9192 0001046 105.4001 254.7325 14.75295588697254"
      },
      "geometry": {
        "type": "Point",
        "coordinates": [
          -178.0487063023924,
          48.390419136920045
        ]
      }
    },
    {
      "type": "Feature",
      "properties": {
        "norad_id": 39084,
        "name": "LANDSAT 8",
        "group": "resource",
        "lat": -25.03689567987159,
        "lon": -126.66028966753686,
        "alt_km": 708.4519973829556,
        "timestamp": "2025-12-15T04:01:20.099681+00:00",
        "meta_object_name": "LANDSAT 8",
        "meta_object_id": "2013-008A",
        "meta_epoch": "2025-12-14T07:18:24.258816",
        "meta_mean_motion": 14.57115872,
        "meta_eccentricity": 0.00010818,
        "meta_inclination": 98.2072,
        "meta_ra_of_asc_node": 56.3548,
        "meta_arg_of_pericenter": 89.6772,
        "meta_mean_anomaly": 270.455,
        "meta_ephemeris_type": 0,
        "meta_classification_type": "U",
        "meta_norad_cat_id": 39084,
        "meta_element_set_no": 999,
        "meta_rev_at_epoch": 67097,
        "meta_bstar": 0.00013509341,
        "meta_mean_motion_dot": 5.63e-06,
        "meta_mean_motion_ddot": 0,
        "tle_line1": "1 39084U 13008A   25348.30444744  .00000563  00000+0  13509-3 0  9992",
        "tle_line2": "2 39084  98.2072  56.3548 0001081  89.6772 270.4550 14.57115872670977"
      },
      "geometry": {
        "type": "Point",
        "coordinates": [
          -126.66028966753686,
          -25.03689567987159
        ]
      }
    },
    {
      "type": "Feature",
      "properties": {
        "norad_id": 39086,
        "name": "SARAL",
        "group": "resource",
        "lat": -21.544075350015433,
        "lon": 176.47108227352544,
        "alt_km": 788.9845672625961,
        "timestamp": "2025-12-15T04:01:20.099691+00:00",
        "meta_object_name": "SARAL",
        "meta_object_id": "2013-009A",
        "meta_epoch": "2025-12-14T08:00:40.194720",
        "meta_mean_motion": 14.32757669,
        "meta_eccentricity": 0.0002897,
        "meta_inclination": 98.5503,
        "meta_ra_of_asc_node": 172.2434,
        "meta_arg_of_pericenter": 105.6923,
        "meta_mean_anomaly": 254.4581,
        "meta_ephemeris_type": 0,
        "meta_classification_type": "U",
        "meta_norad_cat_id": 39086,
        "meta_element_set_no": 999,
        "meta_rev_at_epoch": 66913,
        "meta_bstar": 8.0719932e-05,
        "meta_mean_motion_dot": 1.76e-06,
        "meta_mean_motion_ddot": 0,
        "tle_line1": "1 39086U 13009A   25348.33379855  .00000176  00000+0  80720-4 0  9998",
        "tle_line2": "2 39086  98.5503 172.2434 0002897 105.6923 254.4581 14.32757669669137"
      },
      "geometry": {
        "type": "Point",
        "coordinates": [
          176.47108227352544,
          -21.544075350015433
        ]
      }
    },
    {
      "type": "Feature",
      "properties": {
        "norad_id": 39150,
        "name": "GAOFEN-1",
        "group": "resource",
        "lat": 41.41854885048671,
        "lon": -113.1505696048948,
        "alt_km": 624.1069049412808,
        "timestamp": "2025-12-15T04:01:20.099701+00:00",
        "meta_object_name": "GAOFEN-1",
        "meta_object_id": "2013-018A",
        "meta_epoch": "2025-12-14T07:52:59.171232",
        "meta_mean_motion": 14.76539734,
        "meta_eccentricity": 0.00183239,
        "meta_inclination": 97.9324,
        "meta_ra_of_asc_node": 58.9596,
        "meta_arg_of_pericenter": 138.1085,
        "meta_mean_anomaly": 222.1531,
        "meta_ephemeris_type": 0,
        "meta_classification_type": "U",
        "meta_norad_cat_id": 39150,
        "meta_element_set_no": 999,
        "meta_rev_at_epoch": 68096,
        "meta_bstar": 0.00020346301,
        "meta_mean_motion_dot": 1.371e-05,
        "meta_mean_motion_ddot": 0,
        "tle_line1": "1 39150U 13018A   25348.32846263  .00001371  00000+0  20346-3 0  9996",
        "tle_line2": "2 39150  97.9324  58.9596 0018323 138.1085 222.1531 14.76539734680963"
      },
      "geometry": {
        "type": "Point",
        "coordinates": [
          -113.1505696048948,
          41.41854885048671
        ]
      }
    }
  ]
}